[
    {
        "Altitude(m)": 554716.0342256253,
        "Argument of Periapsis(deg)": 0.019868973332140504,
        "Eccentricity": 0.0,
        "Inclination(deg)": 53.0,
        "Latitude(deg)": 27.89630038497196,
        "Longitude(deg)": 50.9940491882446,
        "Mean Anomaly(deg)": 35.72937860273277,
        "RAAN(deg)": 129.97043010558406,
        "Satellite Name": "Starlink Shell 1 572",
        "Satellite Number": 572,
        "Semi-Major Axis(m)": 6931778.249405717,
        "Time(s)": 570
    },
    {
        "Altitude(m)": 554784.4756974984,
        "Argument of Periapsis(deg)": 0.02021755181165174,
        "Eccentricity": 0.0,
        "Inclination(deg)": 53.0,
        "Latitude(deg)": 28.357193579936457,
        "Longitude(deg)": 51.43645514041233,
        "Mean Anomaly(deg)": 36.35620980628947,
        "RAAN(deg)": 129.96991133550657,
        "Satellite Name": "Starlink Shell 1 572",
        "Satellite Number": 572,
        "Semi-Major Axis(m)": 6931778.249405717,
        "Time(s)": 580
    },
    {
        "Altitude(m)": 554854.1705027748,
        "Argument of Periapsis(deg)": 0.020566130291162974,
        "Eccentricity": 0.0,
        "Inclination(deg)": 53.0,
        "Latitude(deg)": 28.81632560974911,
        "Longitude(deg)": 51.88304594057288,
        "Mean Anomaly(deg)": 36.98304100984618,
        "RAAN(deg)": 129.96939256542913,
        "Satellite Name": "Starlink Shell 1 572",
        "Satellite Number": 572,
        "Semi-Major Axis(m)": 6931778.249405717,
        "Time(s)": 590
    },
    {
        "Altitude(m)": 554925.0661244926,
        "Argument of Periapsis(deg)": 0.020914708770674213,
        "Eccentricity": 0.0,
        "Inclination(deg)": 53.0,
        "Latitude(deg)": 29.273647796861752,
        "Longitude(deg)": 52.33392260125149,
        "Mean Anomaly(deg)": 37.60987221340291,
        "RAAN(deg)": 129.96887379535164,
        "Satellite Name": "Starlink Shell 1 572",
        "Satellite Number": 572,
        "Semi-Major Axis(m)": 6931778.249405717,
        "Time(s)": 600
    },
    {
        "Altitude(m)": 554997.1096321399,
        "Argument of Periapsis(deg)": 0.021263287250185448,
        "Eccentricity": 0.0,
        "Inclination(deg)": 53.0,
        "Latitude(deg)": 29.729110376748885,
        "Longitude(deg)": 52.789187454166104,
        "Mean Anomaly(deg)": 38.23670341695963,
        "RAAN(deg)": 129.96835502527415,
        "Satellite Name": "Starlink Shell 1 572",
        "Satellite Number": 572,
        "Semi-Major Axis(m)": 6931778.249405717,
        "Time(s)": 610
    },
    {
        "Altitude(m)": 555070.2477096526,
        "Argument of Periapsis(deg)": 0.021611865729696686,
        "Eccentricity": 0.0,
        "Inclination(deg)": 53.0,
        "Latitude(deg)": 30.182662466965013,
        "Longitude(deg)": 53.24894464766494,
        "Mean Anomaly(deg)": 38.86353462051635,
        "RAAN(deg)": 129.9678362551967,
        "Satellite Name": "Starlink Shell 1 572",
        "Satellite Number": 572,
        "Semi-Major Axis(m)": 6931778.249405717,
        "Time(s)": 620
    },
    {
        "Altitude(m)": 555144.4266836097,
        "Argument of Periapsis(deg)": 0.02196044420920792,
        "Eccentricity": 0.0,
        "Inclination(deg)": 53.0,
        "Latitude(deg)": 30.634252035798326,
        "Longitude(deg)": 53.71329895956591,
        "Mean Anomaly(deg)": 39.490365824073045,
        "RAAN(deg)": 129.96731748511922,
        "Satellite Name": "Starlink Shell 1 572",
        "Satellite Number": 572,
        "Semi-Major Axis(m)": 6931778.249405717,
        "Time(s)": 630
    },
    {
        "Altitude(m)": 555219.5925515176,
        "Argument of Periapsis(deg)": 0.02230902268871916,
        "Eccentricity": 0.0,
        "Inclination(deg)": 53.0,
        "Latitude(deg)": 31.083825870558247,
        "Longitude(deg)": 54.18235712752889,
        "Mean Anomaly(deg)": 40.117197027629764,
        "RAAN(deg)": 129.96679871504173,
        "Satellite Name": "Starlink Shell 1 572",
        "Satellite Number": 572,
        "Semi-Major Axis(m)": 6931778.249405717,
        "Time(s)": 640
    },
    {
        "Altitude(m)": 555295.6910102479,
        "Argument of Periapsis(deg)": 0.022657601168230398,
        "Eccentricity": 0.0,
        "Inclination(deg)": 53.0,
        "Latitude(deg)": 31.531329545527136,
        "Longitude(deg)": 54.65622665372879,
        "Mean Anomaly(deg)": 40.74402823118646,
        "RAAN(deg)": 129.96627994496427,
        "Satellite Name": "Starlink Shell 1 572",
        "Satellite Number": 572,
        "Semi-Major Axis(m)": 6931778.249405717,
        "Time(s)": 650
    },
    {
        "Altitude(m)": 555372.6674845562,
        "Argument of Periapsis(deg)": 0.023006179647741636,
        "Eccentricity": 0.0,
        "Inclination(deg)": 53.0,
        "Latitude(deg)": 31.976707389623737,
        "Longitude(deg)": 55.135016285924614,
        "Mean Anomaly(deg)": 41.37085943474321,
        "RAAN(deg)": 129.9657611748868,
        "Satellite Name": "Starlink Shell 1 572",
        "Satellite Number": 572,
        "Semi-Major Axis(m)": 6931778.249405717,
        "Time(s)": 660
    },
    {
        "Altitude(m)": 555450.4671556932,
        "Argument of Periapsis(deg)": 0.023354758127252868,
        "Eccentricity": 0.0,
        "Inclination(deg)": 53.0,
        "Latitude(deg)": 32.41990245382293,
        "Longitude(deg)": 55.61883649359801,
        "Mean Anomaly(deg)": 41.99769063829991,
        "RAAN(deg)": 129.96524240480932,
        "Satellite Name": "Starlink Shell 1 572",
        "Satellite Number": 572,
        "Semi-Major Axis(m)": 6931778.249405717,
        "Time(s)": 670
    },
    {
        "Altitude(m)": 555529.0349901116,
        "Argument of Periapsis(deg)": 0.023703336606764106,
        "Eccentricity": 0.0,
        "Inclination(deg)": 53.0,
        "Latitude(deg)": 32.860856478384946,
        "Longitude(deg)": 56.10779842591426,
        "Mean Anomaly(deg)": 42.62452184185663,
        "RAAN(deg)": 129.96472363473185,
        "Satellite Name": "Starlink Shell 1 572",
        "Satellite Number": 572,
        "Semi-Major Axis(m)": 6931778.249405717,
        "Time(s)": 680
    },
    {
        "Altitude(m)": 555608.3157681993,
        "Argument of Periapsis(deg)": 0.024051915086275345,
        "Eccentricity": 0.0,
        "Inclination(deg)": 53.0,
        "Latitude(deg)": 33.299509859955954,
        "Longitude(deg)": 56.60201437685952,
        "Mean Anomaly(deg)": 43.251353045413346,
        "RAAN(deg)": 129.9642048646544,
        "Satellite Name": "Starlink Shell 1 572",
        "Satellite Number": 572,
        "Semi-Major Axis(m)": 6931778.249405717,
        "Time(s)": 690
    },
    {
        "Altitude(m)": 555688.2541130863,
        "Argument of Periapsis(deg)": 0.024400493565786583,
        "Eccentricity": 0.0,
        "Inclination(deg)": 53.0,
        "Latitude(deg)": 33.735801618606395,
        "Longitude(deg)": 57.10159824426861,
        "Mean Anomaly(deg)": 43.878184248970044,
        "RAAN(deg)": 129.9636860945769,
        "Satellite Name": "Starlink Shell 1 572",
        "Satellite Number": 572,
        "Semi-Major Axis(m)": 6931778.249405717,
        "Time(s)": 700
    },
    {
        "Altitude(m)": 555768.7945194723,
        "Argument of Periapsis(deg)": 0.024749072045297815,
        "Eccentricity": 0.0,
        "Inclination(deg)": 53.0,
        "Latitude(deg)": 34.16966936487964,
        "Longitude(deg)": 57.60666446943222,
        "Mean Anomaly(deg)": 44.505015452526784,
        "RAAN(deg)": 129.96316732449944,
        "Satellite Name": "Starlink Shell 1 572",
        "Satellite Number": 572,
        "Semi-Major Axis(m)": 6931778.249405717,
        "Time(s)": 710
    },
    {
        "Altitude(m)": 555849.8813824627,
        "Argument of Periapsis(deg)": 0.025097650524809053,
        "Eccentricity": 0.0,
        "Inclination(deg)": 53.0,
        "Latitude(deg)": 34.60104926693588,
        "Longitude(deg)": 58.117328482580014,
        "Mean Anomaly(deg)": 45.13184665608348,
        "RAAN(deg)": 129.96264855442197,
        "Satellite Name": "Starlink Shell 1 572",
        "Satellite Number": 572,
        "Semi-Major Axis(m)": 6931778.249405717,
        "Time(s)": 720
    },
    {
        "Altitude(m)": 555931.4590264284,
        "Argument of Periapsis(deg)": 0.02544622900432029,
        "Eccentricity": 0.0,
        "Inclination(deg)": 53.0,
        "Latitude(deg)": 35.02987601788194,
        "Longitude(deg)": 58.63370714088955,
        "Mean Anomaly(deg)": 45.75867785964021,
        "RAAN(deg)": 129.96212978434448,
        "Satellite Name": "Starlink Shell 1 572",
        "Satellite Number": 572,
        "Semi-Major Axis(m)": 6931778.249405717,
        "Time(s)": 730
    },
    {
        "Altitude(m)": 556013.4717338416,
        "Argument of Periapsis(deg)": 0.02579480748383153,
        "Eccentricity": 0.0,
        "Inclination(deg)": 53.0,
        "Latitude(deg)": 35.45608280338383,
        "Longitude(deg)": 59.15591764565159,
        "Mean Anomaly(deg)": 46.3855090631969,
        "RAAN(deg)": 129.96161101426702,
        "Satellite Name": "Starlink Shell 1 572",
        "Satellite Number": 572,
        "Semi-Major Axis(m)": 6931778.249405717,
        "Time(s)": 740
    },
    {
        "Altitude(m)": 556095.8637740773,
        "Argument of Periapsis(deg)": 0.026143385963342765,
        "Eccentricity": 0.0,
        "Inclination(deg)": 53.0,
        "Latitude(deg)": 35.8796012696764,
        "Longitude(deg)": 59.68407796382708,
        "Mean Anomaly(deg)": 47.012340266753625,
        "RAAN(deg)": 129.96109224418956,
        "Satellite Name": "Starlink Shell 1 572",
        "Satellite Number": 572,
        "Semi-Major Axis(m)": 6931778.249405717,
        "Time(s)": 750
    }
]